SL-16 R/B               
1 23405U 94077B   26165.36484107 -.00000063  00000+0 -74759-5 0  9991
2 23405  70.9807 149.1001 0002807 329.8987  30.1974 14.15571713629912
ARIANE 40+ R/B          
1 23561U 95021B   26165.47336438  .00000221  00000+0  84167-4 0  9996
2 23561  98.4411 235.5874 0006262 202.0103 168.6005 14.39831900633178
SL-16 R/B               
1 23705U 95058B   26165.51783567  .00000240  00000+0  14717-3 0  9994
2 23705  71.0217 336.9630 0013619 324.1444  35.8764 14.15506873581556
SL-16 R/B               
1 24298U 96051B   26165.55267259  .00000104  00000+0  82942-4 0  9990
2 24298  70.7639 330.2245 0015242 340.8311  19.2233 14.12445004535325
ORBVIEW 2 (SEASTAR)     
1 24883U 97037A   26165.44110246  .00000177  00000+0  77798-4 0  9999
2 24883  98.8684 332.3841 0003127 121.6002 238.5488 14.35552079522355
SL-16 R/B               
1 25400U 98043G   26165.48626621  .00000022  00000+0  28345-4 0  9999
2 25400  98.8363 119.6222 0010933  93.3523 266.8908 14.26068170452784
SL-16 R/B               
1 25407U 98045B   26165.55187051 -.00000230  00000+0 -91995-4 0  9999
2 25407  71.0120 337.8721 0009496 244.8131 115.2008 14.16204152440813
ISS (ZARYA)             
1 25544U 98067A   26165.48029322  .00008443  00000+0  15998-3 0  9993
2 25544  51.6335 313.4905 0004925 185.2578 174.8360 15.49225904571335
CZ-4B R/B               
1 25732U 99025C   26165.60897212  .00000048  00000+0  43875-4 0  9991
2 25732  98.6484 207.5123 0038164  66.8741  48.4125 14.18283012401902
OKEAN-O                 
1 25860U 99039A   26165.44128838  .00000514  00000+0  74062-4 0  9991
2 25860  97.9318 224.2706 0001692  74.1255 286.0144 14.80464084448702
SL-16 R/B               
1 25861U 99039B   26165.12799581  .00000442  00000+0  62691-4 0  9991
2 25861  97.9839 223.9997 0013619 307.7856  52.2122 14.81842502451140
DELTA 2 R/B             
1 25876U 99041E   26165.55655418  .00000725  00000+0  15449-3 0  9999
2 25876  51.7658 274.3052 0500857 274.2393  80.1479 14.12012204376710
HELIOS 1B               
1 25977U 99064A   26165.48883027  .00001261  00000+0  14379-3 0  9994
2 25977  98.1618  70.5505 0002481  94.8328 265.3171 14.88000137699658
TERRA                   
1 25994U 99068A   26165.49902450  .00000343  00000+0  78741-4 0  9994
2 25994  97.9457 215.1518 0001369 199.3330 302.4932 14.61101134409213
SL-16 R/B               
1 26070U 00006B   26165.59241334 -.00000181  00000+0 -67566-4 0  9997
2 26070  71.0023 254.0810 0015401  26.9647 333.2273 14.15834368362271
TITAN 4B R/B            
1 26474U 00047B   26165.60973781  .00002853  00000+0  17849-3 0  9994
2 26474  67.9877 127.8279 0045651 289.8517  69.7715 15.10184034407548
ENVISAT                 
1 27386U 02009A   26165.47756318  .00000062  00000+0  34092-4 0  9997
2 27386  98.3834 116.8564 0001335  89.1662  21.6868 14.39064231273093
IDEFIX & ARIANE 42P R/B 
1 27422U 02021B   26165.54263407  .00000169  00000+0  80842-4 0  9994
2 27422  98.5943 103.0544 0010572 262.5898  97.4083 14.31080970257872
AQUA                    
1 27424U 02022A   26165.59021419  .00000684  00000+0  14580-3 0  9994
2 27424  98.4276 134.8211 0001204  53.6401   5.5208 14.62154575282892
CZ-4B R/B               
1 27432U 02024C   26165.40134137  .00000042  00000+0  44255-4 0  9998
2 27432  98.8701 218.2397 0051167 107.9712 263.8444 14.14563887242918
MIDORI II (ADEOS-II)    
1 27597U 02056A   26165.47800374  .00000211  00000+0  10052-3 0  9990
2 27597  98.7878 124.7147 0002208  80.4678 279.6753 14.29348283224124
H-2A R/B                
1 27601U 02056E   26165.66100707  .00000149  00000+0  67087-4 0  9991
2 27601  98.3311 122.4276 0069074 232.1826 301.6087 14.33821023228001
CZ-4B R/B               
1 28059U 03049C   26165.54944986  .00000253  00000+0  69673-4 0  9993
2 28059  98.6896 164.2909 0047032 296.8488  62.7903 14.55098589200681
CZ-2C R/B               
1 28222U 04012C   26165.24448084  .00103879  00000+0  59499-3 0  9993
2 28222  97.7091 240.5659 0009029 296.3814  63.6524 15.78471137219434
SL-16 R/B               
1 28353U 04021B   26165.33280291 -.00000279  00000+0 -12038-3 0  9992
2 28353  71.0012  29.6803 0007376 258.1102 101.9194 14.14609564136504
CZ-4B R/B               
1 28415U 04035C   26165.58297336  .00007409  00000+0  24967-3 0  9995
2 28415  97.3365 198.6856 0030186 347.5363  12.5128 15.30593545194729
CZ-2C R/B               
1 28480U 04046B   26165.59718077  .00000065  00000+0  39778-4 0  9998
2 28480  98.1947  74.5397 0138363 227.9772 130.9565 14.27026000122328
ARIANE 5 R/B            
1 28499U 04049H   26165.43584284  .00000588  00000+0  71039-4 0  9991
2 28499  98.2719 337.5827 0084686  38.2674 322.4509 14.85445757160155
CZ-2D R/B               
1 28738U 05024B   26165.54138554  .00051895  00000+0  44418-3 0  9995
2 28738  97.3481 184.8380 0003850  59.0467 301.1173 15.69293255154925
ALOS (DAICHI)           
1 28931U 06002A   26165.64015212  .00000923  00000+0  16213-3 0  9991
2 28931  98.1323 121.2155 0001551  58.5186 301.6172 14.70045584 87725
